CCSDS_OMM_VERS = 2.0
CREATION_DATE  = 
ORIGINATOR     = 

OBJECT_NAME    = STARLINK-36407
OBJECT_ID      = 2026-018Z
CENTER_NAME    = EARTH
REF_FRAME      = TEME
TIME_SYSTEM    = UTC
MEAN_ELEMENT_THEORY = SGP/SGP4

EPOCH          = 2026-02-27T03:49:56.477280
MEAN_MOTION    = 15.75148274
ECCENTRICITY   = .0001842
INCLINATION    = 97.2851
RA_OF_ASC_NODE = 123.5030
ARG_OF_PERICENTER = 100.5472
MEAN_ANOMALY   = 259.6001

EPHEMERIS_TYPE = 0
CLASSIFICATION_TYPE = U
NORAD_CAT_ID   = 67612
ELEMENT_SET_NO = 999
REV_AT_EPOCH   = 570
BSTAR          = .1515E-2
MEAN_MOTION_DOT = .231664E-2
MEAN_MOTION_DDOT = 0

CCSDS_OMM_VERS = 2.0
CREATION_DATE  = 
ORIGINATOR     = 

OBJECT_NAME    = STARLINK-36597
OBJECT_ID      = 2026-018AA
CENTER_NAME    = EARTH
REF_FRAME      = TEME
TIME_SYSTEM    = UTC
MEAN_ELEMENT_THEORY = SGP/SGP4

EPOCH          = 2026-02-27T04:00:01.999584
MEAN_MOTION    = 15.75136272
ECCENTRICITY   = .0001288
INCLINATION    = 97.2845
RA_OF_ASC_NODE = 123.5686
ARG_OF_PERICENTER = 87.9326
MEAN_ANOMALY   = 83.9215

EPHEMERIS_TYPE = 0
CLASSIFICATION_TYPE = U
NORAD_CAT_ID   = 67613
ELEMENT_SET_NO = 999
REV_AT_EPOCH   = 566
BSTAR          = .468E-3
MEAN_MOTION_DOT = .70086E-3
MEAN_MOTION_DDOT = 0

CCSDS_OMM_VERS = 2.0
CREATION_DATE  = 
ORIGINATOR     = 

OBJECT_NAME    = NEONSAT-1A
OBJECT_ID      = 2026-019A
CENTER_NAME    = EARTH
REF_FRAME      = TEME
TIME_SYSTEM    = UTC
MEAN_ELEMENT_THEORY = SGP/SGP4

EPOCH          = 2026-02-27T03:51:39.047040
MEAN_MOTION    = 15.07691619
ECCENTRICITY   = .0012906
INCLINATION    = 97.4100
RA_OF_ASC_NODE = 182.1162
ARG_OF_PERICENTER = 205.5668
MEAN_ANOMALY   = 154.4924

EPHEMERIS_TYPE = 0
CLASSIFICATION_TYPE = U
NORAD_CAT_ID   = 67614
ELEMENT_SET_NO = 999
REV_AT_EPOCH   = 423
BSTAR          = .31323E-3
MEAN_MOTION_DOT = .4727E-4
MEAN_MOTION_DDOT = 0

CCSDS_OMM_VERS = 2.0
CREATION_DATE  = 
ORIGINATOR     = 

OBJECT_NAME    = ELECTRON KICK STAGE R/B
OBJECT_ID      = 2026-019C
CENTER_NAME    = EARTH
REF_FRAME      = TEME
TIME_SYSTEM    = UTC
MEAN_ELEMENT_THEORY = SGP/SGP4

EPOCH          = 2026-02-27T03:01:16.319712
MEAN_MOTION    = 15.76156644
ECCENTRICITY   = .0138274
INCLINATION    = 97.3995
RA_OF_ASC_NODE = 184.4462
ARG_OF_PERICENTER = 159.7683
MEAN_ANOMALY   = 200.9139

EPHEMERIS_TYPE = 0
CLASSIFICATION_TYPE = U
NORAD_CAT_ID   = 67616
ELEMENT_SET_NO = 999
REV_AT_EPOCH   = 438
BSTAR          = .21347E-2
MEAN_MOTION_DOT = .630633E-2
MEAN_MOTION_DDOT = .13348E-3

CCSDS_OMM_VERS = 2.0
CREATION_DATE  = 
ORIGINATOR     = 

OBJECT_NAME    = STARLINK-36548
OBJECT_ID      = 2026-020A
CENTER_NAME    = EARTH
REF_FRAME      = TEME
TIME_SYSTEM    = UTC
MEAN_ELEMENT_THEORY = SGP/SGP4

EPOCH          = 2026-02-26T18:48:37.059264
MEAN_MOTION    = 15.76432060
ECCENTRICITY   = .00014111
INCLINATION    = 42.9987
RA_OF_ASC_NODE = 208.5652
ARG_OF_PERICENTER = 294.6422
MEAN_ANOMALY   = 65.4300

EPHEMERIS_TYPE = 0
CLASSIFICATION_TYPE = U
NORAD_CAT_ID   = 67617
ELEMENT_SET_NO = 999
REV_AT_EPOCH   = 436
BSTAR          = .18705506E-2
MEAN_MOTION_DOT = .316693E-2
MEAN_MOTION_DDOT = 0

CCSDS_OMM_VERS = 2.0
CREATION_DATE  = 
ORIGINATOR     = 

OBJECT_NAME    = STARLINK-36601
OBJECT_ID      = 2026-020B
CENTER_NAME    = EARTH
REF_FRAME      = TEME
TIME_SYSTEM    = UTC
MEAN_ELEMENT_THEORY = SGP/SGP4

EPOCH          = 2026-02-27T02:52:58.869984
MEAN_MOTION    = 15.76396985
ECCENTRICITY   = .000214
INCLINATION    = 42.9985
RA_OF_ASC_NODE = 205.9003
ARG_OF_PERICENTER = 280.9570
MEAN_ANOMALY   = 79.1059

EPHEMERIS_TYPE = 0
CLASSIFICATION_TYPE = U
NORAD_CAT_ID   = 67618
ELEMENT_SET_NO = 999
REV_AT_EPOCH   = 442
BSTAR          = .18923E-2
MEAN_MOTION_DOT = .32001E-2
MEAN_MOTION_DDOT = 0

CCSDS_OMM_VERS = 2.0
CREATION_DATE  = 
ORIGINATOR     = 

OBJECT_NAME    = STARLINK-36119
OBJECT_ID      = 2026-020C
CENTER_NAME    = EARTH
REF_FRAME      = TEME
TIME_SYSTEM    = UTC
MEAN_ELEMENT_THEORY = SGP/SGP4

EPOCH          = 2026-02-26T18:45:26.920512
MEAN_MOTION    = 15.76494781
ECCENTRICITY   = .00039088
INCLINATION    = 42.9996
RA_OF_ASC_NODE = 208.5499
ARG_OF_PERICENTER = 270.5491
MEAN_ANOMALY   = 89.4930

EPHEMERIS_TYPE = 0
CLASSIFICATION_TYPE = U
NORAD_CAT_ID   = 67619
ELEMENT_SET_NO = 999
REV_AT_EPOCH   = 436
BSTAR          = .22406856E-2
MEAN_MOTION_DOT = .383607E-2
MEAN_MOTION_DDOT = 0

CCSDS_OMM_VERS = 2.0
CREATION_DATE  = 
ORIGINATOR     = 

OBJECT_NAME    = STARLINK-36607
OBJECT_ID      = 2026-020D
CENTER_NAME    = EARTH
REF_FRAME      = TEME
TIME_SYSTEM    = UTC
MEAN_ELEMENT_THEORY = SGP/SGP4

EPOCH          = 2026-02-27T03:08:44.797056
MEAN_MOTION    = 15.76444757
ECCENTRICITY   = .0001582
INCLINATION    = 42.9995
RA_OF_ASC_NODE = 205.9894
ARG_OF_PERICENTER = 297.0352
MEAN_ANOMALY   = 63.0356

EPHEMERIS_TYPE = 0
CLASSIFICATION_TYPE = U
NORAD_CAT_ID   = 67620
ELEMENT_SET_NO = 999
REV_AT_EPOCH   = 442
BSTAR          = .17524E-2
MEAN_MOTION_DOT = .296094E-2
MEAN_MOTION_DDOT = 0

CCSDS_OMM_VERS = 2.0
CREATION_DATE  = 
ORIGINATOR     = 

OBJECT_NAME    = STARLINK-36615
OBJECT_ID      = 2026-020E
CENTER_NAME    = EARTH
REF_FRAME      = TEME
TIME_SYSTEM    = UTC
MEAN_ELEMENT_THEORY = SGP/SGP4

EPOCH          = 2026-02-27T04:00:01.999584
MEAN_MOTION    = 15.76252744
ECCENTRICITY   = .0001926
INCLINATION    = 42.9995
RA_OF_ASC_NODE = 205.4916
ARG_OF_PERICENTER = 249.8300
MEAN_ANOMALY   = 64.5930

EPHEMERIS_TYPE = 0
CLASSIFICATION_TYPE = U
NORAD_CAT_ID   = 67621
ELEMENT_SET_NO = 999
REV_AT_EPOCH   = 569
BSTAR          = .10793E-2
MEAN_MOTION_DOT = .178119E-2
MEAN_MOTION_DDOT = 0

CCSDS_OMM_VERS = 2.0
CREATION_DATE  = 
ORIGINATOR     = 

OBJECT_NAME    = STARLINK-36614
OBJECT_ID      = 2026-020F
CENTER_NAME    = EARTH
REF_FRAME      = TEME
TIME_SYSTEM    = UTC
MEAN_ELEMENT_THEORY = SGP/SGP4

EPOCH          = 2026-02-26T11:02:57.574176
MEAN_MOTION    = 15.76502918
ECCENTRICITY   = .0002091
INCLINATION    = 42.9987
RA_OF_ASC_NODE = 210.4374
ARG_OF_PERICENTER = 270.9181
MEAN_ANOMALY   = 89.1449

EPHEMERIS_TYPE = 0
CLASSIFICATION_TYPE = U
NORAD_CAT_ID   = 67622
ELEMENT_SET_NO = 999
REV_AT_EPOCH   = 431
BSTAR          = .26197E-2
MEAN_MOTION_DOT = .452406E-2
MEAN_MOTION_DDOT = 0

CCSDS_OMM_VERS = 2.0
CREATION_DATE  = 
ORIGINATOR     = 

OBJECT_NAME    = STARLINK-36600
OBJECT_ID      = 2026-020G
CENTER_NAME    = EARTH
REF_FRAME      = TEME
TIME_SYSTEM    = UTC
MEAN_ELEMENT_THEORY = SGP/SGP4

EPOCH          = 2026-02-26T03:29:56.008032
MEAN_MOTION    = 15.76440465
ECCENTRICITY   = .00012674
INCLINATION    = 42.9988
RA_OF_ASC_NODE = 212.3809
ARG_OF_PERICENTER = 294.8560
MEAN_ANOMALY   = 65.2178

EPHEMERIS_TYPE = 0
CLASSIFICATION_TYPE = U
NORAD_CAT_ID   = 67623
ELEMENT_SET_NO = 999
REV_AT_EPOCH   = 426
BSTAR          = .22162913E-2
MEAN_MOTION_DOT = .378239E-2
MEAN_MOTION_DDOT = 0

CCSDS_OMM_VERS = 2.0
CREATION_DATE  = 
ORIGINATOR     = 

OBJECT_NAME    = STARLINK-36439
OBJECT_ID      = 2026-020H
CENTER_NAME    = EARTH
REF_FRAME      = TEME
TIME_SYSTEM    = UTC
MEAN_ELEMENT_THEORY = SGP/SGP4

EPOCH          = 2026-02-26T19:57:45.934560
MEAN_MOTION    = 15.76488171
ECCENTRICITY   = .00040114
INCLINATION    = 42.9990
RA_OF_ASC_NODE = 208.0556
ARG_OF_PERICENTER = 274.0747
MEAN_ANOMALY   = 85.9664

EPHEMERIS_TYPE = 0
CLASSIFICATION_TYPE = U
NORAD_CAT_ID   = 67624
ELEMENT_SET_NO = 999
REV_AT_EPOCH   = 437
BSTAR          = .17616471E-2
MEAN_MOTION_DOT = .298369E-2
MEAN_MOTION_DDOT = 0

