STARLINK-36407          
1 67612U 26018Z   26058.15968145  .00231664  00000+0  15150-2 0  9994
2 67612  97.2851 123.5030 0001842 100.5472 259.6001 15.75148274  5703
STARLINK-36597          
1 67613U 26018AA  26058.16668981  .00070086  00000+0  46800-3 0  9997
2 67613  97.2845 123.5686 0001288  87.9326  83.9215 15.75136272  5669
NEONSAT-1A              
1 67614U 26019A   26058.16086860  .00004727  00000+0  31323-3 0  9992
2 67614  97.4100 182.1162 0012906 205.5668 154.4924 15.07691619  4231
ELECTRON KICK STAGE R/B 
1 67616U 26019C   26058.12588333  .00630633  13348-3  21347-2 0  9990
2 67616  97.3995 184.4462 0138274 159.7683 200.9139 15.76156644  4387
STARLINK-36548          
1 67617U 26020A   26057.78376226  .00316693  00000+0  18706-2 0  9999
2 67617  42.9987 208.5652 0001411 294.6422  65.4300 15.76432060  4367
STARLINK-36601          
1 67618U 26020B   26058.12012581  .00320010  00000+0  18923-2 0  9999
2 67618  42.9985 205.9003 0002140 280.9570  79.1059 15.76396985  4424
STARLINK-36119          
1 67619U 26020C   26057.78156158  .00383607  00000+0  22407-2 0  9993
2 67619  42.9996 208.5499 0003908 270.5491  89.4930 15.76494781  4363
STARLINK-36607          
1 67620U 26020D   26058.13107404  .00296094  00000+0  17524-2 0  9992
2 67620  42.9995 205.9894 0001582 297.0352  63.0356 15.76444757  4425
STARLINK-36615          
1 67621U 26020E   26058.16668981  .00178119  00000+0  10793-2 0  9996
2 67621  42.9995 205.4916 0001926 249.8300  64.5930 15.76252744  5693
STARLINK-36614          
1 67622U 26020F   26057.46038859  .00452406  00000+0  26197-2 0  9993
2 67622  42.9987 210.4374 0002091 270.9181  89.1449 15.76502918  4312
STARLINK-36600          
1 67623U 26020G   26057.14578713  .00378239  00000+0  22163-2 0  9997
2 67623  42.9988 212.3809 0001267 294.8560  65.2178 15.76440465  4264
STARLINK-36439          
1 67624U 26020H   26057.83178165  .00298369  00000+0  17616-2 0  9993
2 67624  42.9990 208.0556 0004011 274.0747  85.9664 15.76488171  4373
